[{"OBJECT_NAME":"STARLINK-32207","OBJECT_ID":"2024-131E","EPOCH":"2026-03-09T22:31:55.363872","MEAN_MOTION":15.30186094,"ECCENTRICITY":0.00012082,"INCLINATION":53.1611,"RA_OF_ASC_NODE":51.5073,"ARG_OF_PERICENTER":91.7757,"MEAN_ANOMALY":268.3382,"EPHEMERIS_TYPE":0,"CLASSIFICATION_TYPE":"U","NORAD_CAT_ID":60259,"ELEMENT_SET_NO":999,"REV_AT_EPOCH":9175,"BSTAR":7.90079e-6,"MEAN_MOTION_DOT":-1.25e-6,"MEAN_MOTION_DDOT":0},{"OBJECT_NAME":"FENGYUN 1C DEB","OBJECT_ID":"1999-025DCL","EPOCH":"2026-03-08T01:32:38.043744","MEAN_MOTION":14.80481308,"ECCENTRICITY":0.0218035,"INCLINATION":98.8149,"RA_OF_ASC_NODE":16.0796,"ARG_OF_PERICENTER":161.8742,"MEAN_ANOMALY":199.0399,"EPHEMERIS_TYPE":0,"CLASSIFICATION_TYPE":"U","NORAD_CAT_ID":33603,"ELEMENT_SET_NO":999,"REV_AT_EPOCH":119,"BSTAR":0.0001936534,"MEAN_MOTION_DOT":2.149e-5,"MEAN_MOTION_DDOT":0}]
